0 OICETS
1 28809U 05031A   13282.47702778  .00000921  00000-0  89777-4 0  6300
2 28809 098.1232 287.9205 0018289 235.4921 284.9282 14.94988669442482
0 OICETS
1 28809U 05031A   13283.67689894  .00000911  00000-0  88860-4 0  6318
2 28809 098.1229 289.1632 0018377 231.3793 262.7244 14.94989446442662
0 OICETS
1 28809U 05031A   13285.68494382  .00001250  00000-0  11974-3 0  6337
2 28809 098.1223 291.2424 0018576 224.3858 270.3100 14.94989910442969
0 OICETS
1 28809U 05031A   13287.14067413  .00001690  00000-0  15986-3 0  6347
2 28809 098.1221 292.7496 0018705 219.2841 185.3022 14.94992437443182
0 OICETS
1 28809U 05031A   13288.14777381  .00002606  00000-0  24328-3 0  6359
2 28809 098.1220 293.7922 0018808 215.8242 205.6258 14.94999472443337
0 OICETS
1 28809U 05031A   13289.50464318  .00002451  00000-0  22918-3 0  6365
2 28809 098.1215 295.1968 0018806 211.4820 308.1624 14.95003331443538
0 OICETS
1 28809U 05031A   13290.63425126  .00002478  00000-0  23163-3 0  6378
2 28809 098.1215 296.3661 0018863 207.2352 268.2507 14.95008067443703
0 OICETS
1 28809U 05031A   13291.77025944  .00002592  00000-0  24196-3 0  6383
2 28809 098.1218 297.5420 0018915 203.2581 262.5153 14.95010847443871
0 OICETS
1 28809U 05031A   13293.16779131  .00003123  00000-0  29027-3 0  6392
2 28809 098.1223 298.9886 0018994 198.1733 224.5774 14.95015322444080
0 OICETS
1 28809U 05031A   13294.52539448  .00003424  00000-0  31758-3 0  6408
2 28809 098.1229 300.3939 0019069 193.5077 331.4765 14.95022463444281
0 OICETS
1 28809U 05031A   13295.65785865  .00002377  00000-0  22220-3 0  6410
2 28809 098.1233 301.5668 0019285 189.9799 306.2785 14.95035121444454
